[{"OBJECT_NAME":"ONEWEB-0615","OBJECT_ID":"2022-166AL","EPOCH":"2026-03-09T22:30:16.143840","MEAN_MOTION":13.21825646,"ECCENTRICITY":0.0001574,"INCLINATION":87.9162,"RA_OF_ASC_NODE":263.7781,"ARG_OF_PERICENTER":92.8749,"MEAN_ANOMALY":267.2565,"EPHEMERIS_TYPE":0,"CLASSIFICATION_TYPE":"U","NORAD_CAT_ID":54676,"ELEMENT_SET_NO":999,"REV_AT_EPOCH":15833,"BSTAR":-0.00016981122,"MEAN_MOTION_DOT":-5.7e-7,"MEAN_MOTION_DDOT":0},{"OBJECT_NAME":"SL-14 DEB","OBJECT_ID":"1991-056BK","EPOCH":"2026-03-08T19:05:09.771072","MEAN_MOTION":13.19468012,"ECCENTRICITY":0.00216461,"INCLINATION":82.5627,"RA_OF_ASC_NODE":205.6097,"ARG_OF_PERICENTER":347.4477,"MEAN_ANOMALY":12.6105,"EPHEMERIS_TYPE":0,"CLASSIFICATION_TYPE":"U","NORAD_CAT_ID":45321,"ELEMENT_SET_NO":999,"REV_AT_EPOCH":29013,"BSTAR":0.00036913689,"MEAN_MOTION_DOT":1.6e-6,"MEAN_MOTION_DDOT":0}]
